IRIDIUM 57              
1 25273U 98019B   24200.51922809  .00000908  00000+0  31032-3 0  9998
2 25273  86.3956 284.9975 0002230  94.0459 266.0992 14.35287877376912
IRIDIUM 63              
1 25286U 98021B   24200.60057342  .00000742  00000+0  24956-3 0  9999
2 25286  86.3977 221.8644 0002093  91.1156 269.0281 14.35835173375967
IRIDIUM 69              
1 25319U 98026A   24200.57660079  .00001109  00000+0  34551-3 0  9994
2 25319  86.3962 236.1647 0004218  67.7051 292.4595 14.40086252375032
IRIDIUM 71              
1 25320U 98026B   24200.56988093  .00000958  00000+0  29581-3 0  9992
2 25320  86.3962 230.9226 0004399  99.2552 260.9144 14.40392912375555
IRIDIUM 73              
1 25344U 98032C   24200.48066419  .00001481  00000+0  37235-3 0  9992
2 25344  86.4447 188.3646 0002847  80.6932 279.4595 14.50636481382167
IRIDIUM 82              
1 25467U 98051A   24200.60295956  .00027475  00000+0  13289-2 0  9996
2 25467  86.3752 270.8536 0126814 105.3085 256.2211 15.11541177373232
